{"type": "FeatureCollection", "features": [ {"type": "Feature", "properties": {"norad_id": 64902, "name": "CO3D 2", "group": "resource", "lat": -5.664691424258041, "lon": -110.10792025129666, "alt_km": 509.2871973025185, "timestamp": "2025-12-20T11:30:28.029140+00:00", "meta": {"OBJECT_NAME": "CO3D 2", "OBJECT_ID": "2025-156D", "EPOCH": "2025-12-18T23:56:22.431840", "MEAN_MOTION": 15.20201426, "ECCENTRICITY": 6.127e-05, "INCLINATION": 97.4339, "RA_OF_ASC_NODE": 69.1735, "ARG_OF_PERICENTER": 62.3895, "MEAN_ANOMALY": 297.7402, "EPHEMERIS_TYPE": 0, "CLASSIFICATION_TYPE": "U", "NORAD_CAT_ID": 64902, "ELEMENT_SET_NO": 999, "REV_AT_EPOCH": 2215, "BSTAR": 2.1688322e-05, "MEAN_MOTION_DOT": 4.02e-06, "MEAN_MOTION_DDOT": 0}, "tle": {"line1": "1 64902U 25156D   25352.99748185  .00000402  00000+0  21688-4 0  9992", "line2": "2 64902  97.4339  69.1735 0000612  62.3895 297.7402 15.20201426 22155"}}, "geometry": {"type": "Point", "coordinates": [-110.10792025129666, -5.664691424258041]}}, {"type": "Feature", "properties": {"norad_id": 64903, "name": "CO3D 1", "group": "resource", "lat": -4.84102305529718, "lon": -109.99877694823546, "alt_km": 509.16923056507767, "timestamp": "2025-12-20T11:30:28.029150+00:00", "meta": {"OBJECT_NAME": "CO3D 1", "OBJECT_ID": "2025-156E", "EPOCH": "2025-12-20T04:22:43.137408", "MEAN_MOTION": 15.2019463, "ECCENTRICITY": 9.28e-05, "INCLINATION": 97.4345, "RA_OF_ASC_NODE": 70.3421, "ARG_OF_PERICENTER": 75.2061, "MEAN_ANOMALY": 284.9276, "EPHEMERIS_TYPE": 0, "CLASSIFICATION_TYPE": "U", "NORAD_CAT_ID": 64903, "ELEMENT_SET_NO": 999, "REV_AT_EPOCH": 2233, "BSTAR": 0.00017631, "MEAN_MOTION_DOT": 3.75e-05, "MEAN_MOTION_DDOT": 0}, "tle": {"line1": "1 64903U 25156E   25354.18244372  .00003750  00000+0  17631-3 0  9996", "line2": "2 64903  97.4345  70.3421 0000928  75.2061 284.9276 15.20194630 22332"}}, "geometry": {"type": "Point", "coordinates": [-109.99877694823546, -4.84102305529718]}}, {"type": "Feature", "properties": {"norad_id": 66514, "name": "SENTINEL-6B", "group": "resource", "lat": 20.659587049953174, "lon": -43.30395975856602, "alt_km": 1336.4295016376, "timestamp": "2025-12-20T11:30:28.029160+00:00", "meta": {"OBJECT_NAME": "SENTINEL-6B", "OBJECT_ID": "2025-264A", "EPOCH": "2025-12-12T06:01:21.428544", "MEAN_MOTION": 12.81479578, "ECCENTRICITY": 0.00078482, "INCLINATION": 66.0385, "RA_OF_ASC_NODE": 163.4531, "ARG_OF_PERICENTER": 270.1376, "MEAN_ANOMALY": 89.874, "EPHEMERIS_TYPE": 0, "CLASSIFICATION_TYPE": "U", "NORAD_CAT_ID": 66514, "ELEMENT_SET_NO": 999, "REV_AT_EPOCH": 322, "BSTAR": 0.00018573353, "MEAN_MOTION_DOT": -1.8e-07, "MEAN_MOTION_DDOT": 0}, "tle": {"line1": "1 66514U 25264A   25346.25094246 -.00000018  00000+0  18573-3 0  9999", "line2": "2 66514  66.0385 163.4531 0007848 270.1376  89.8740 12.81479578  3223"}}, "geometry": {"type": "Point", "coordinates": [-43.30395975856602, 20.659587049953174]}}]}